{"type": "FeatureCollection", "features": [ {"type": "Feature", "properties": {"norad_id": 33745, "name": "FENGYUN 1C DEB", "group": "fengyun-1c-debris", "lat": 9.646755460598234, "lon": 24.847725057173722, "alt_km": 832.5464180345698, "timestamp": "2025-12-15T04:01:20.738741+00:00", "meta": {"OBJECT_NAME": "FENGYUN 1C DEB", "OBJECT_ID": "1999-025DJJ", "EPOCH": "2025-12-13T01:19:37.273728", "MEAN_MOTION": 14.22320724, "ECCENTRICITY": 0.00541028, "INCLINATION": 99.1146, "RA_OF_ASC_NODE": 24.2285, "ARG_OF_PERICENTER": 265.2923, "MEAN_ANOMALY": 94.2073, "EPHEMERIS_TYPE": 0, "CLASSIFICATION_TYPE": "U", "NORAD_CAT_ID": 33745, "ELEMENT_SET_NO": 999, "REV_AT_EPOCH": 66006, "BSTAR": 0.0019074216, "MEAN_MOTION_DOT": 4.259e-05, "MEAN_MOTION_DDOT": 0}, "tle": {"line1": "1 33745U 99025DJJ 25347.05529252  .00004259  00000+0  19074-2 0  9990", "line2": "2 33745  99.1146  24.2285 0054102 265.2923  94.2073 14.22320724660068"}}, "geometry": {"type": "Point", "coordinates": [24.847725057173722, 9.646755460598234]}}, {"type": "Feature", "properties": {"norad_id": 33747, "name": "FENGYUN 1C DEB", "group": "fengyun-1c-debris", "lat": -61.20147841792813, "lon": -113.04423056795507, "alt_km": 786.3077043839439, "timestamp": "2025-12-15T04:01:20.738751+00:00", "meta": {"OBJECT_NAME": "FENGYUN 1C DEB", "OBJECT_ID": "1999-025DJL", "EPOCH": "2025-12-07T00:03:01.560960", "MEAN_MOTION": 14.17338054, "ECCENTRICITY": 0.00899301, "INCLINATION": 99.098, "RA_OF_ASC_NODE": 75.547, "ARG_OF_PERICENTER": 232.9564, "MEAN_ANOMALY": 126.336, "EPHEMERIS_TYPE": 0, "CLASSIFICATION_TYPE": "U", "NORAD_CAT_ID": 33747, "ELEMENT_SET_NO": 999, "REV_AT_EPOCH": 90051, "BSTAR": 0.0039970984, "MEAN_MOTION_DOT": 8.373e-05, "MEAN_MOTION_DDOT": 0}, "tle": {"line1": "1 33747U 99025DJL 25341.00210140  .00008373  00000+0  39971-2 0  9993", "line2": "2 33747  99.0980  75.5470 0089930 232.9564 126.3360 14.17338054900511"}}, "geometry": {"type": "Point", "coordinates": [-113.04423056795507, -61.20147841792813]}}, {"type": "Feature", "properties": {"norad_id": 33748, "name": "FENGYUN 1C DEB", "group": "fengyun-1c-debris", "lat": 29.551973287386694, "lon": 35.38246776964328, "alt_km": 805.2086356302525, "timestamp": "2025-12-15T04:01:20.738761+00:00", "meta": {"OBJECT_NAME": "FENGYUN 1C DEB", "OBJECT_ID": "1999-025DJM", "EPOCH": "2025-12-14T02:44:00.963456", "MEAN_MOTION": 14.32296374, "ECCENTRICITY": 0.00345988, "INCLINATION": 98.5869, "RA_OF_ASC_NODE": 39.2538, "ARG_OF_PERICENTER": 236.8603, "MEAN_ANOMALY": 122.9259, "EPHEMERIS_TYPE": 0, "CLASSIFICATION_TYPE": "U", "NORAD_CAT_ID": 33748, "ELEMENT_SET_NO": 999, "REV_AT_EPOCH": 91413, "BSTAR": 0.0014938816, "MEAN_MOTION_DOT": 4.016e-05, "MEAN_MOTION_DDOT": 0}, "tle": {"line1": "1 33748U 99025DJM 25348.11390004  .00004016  00000+0  14939-2 0  9998", "line2": "2 33748  98.5869  39.2538 0034598 236.8603 122.9259 14.32296374914138"}}, "geometry": {"type": "Point", "coordinates": [35.38246776964328, 29.551973287386694]}}, {"type": "Feature", "properties": {"norad_id": 35088, "name": "FENGYUN 1C DEB", "group": "fengyun-1c-debris", "lat": -68.2673110272899, "lon": 175.27651344174072, "alt_km": 872.6652774292706, "timestamp": "2025-12-15T04:01:20.738771+00:00", "meta": {"OBJECT_NAME": "FENGYUN 1C DEB", "OBJECT_ID": "1999-025DJQ", "EPOCH": "2025-12-12T18:31:51.390912", "MEAN_MOTION": 14.1194857, "ECCENTRICITY": 0.02676008, "INCLINATION": 94.6219, "RA_OF_ASC_NODE": 162.3279, "ARG_OF_PERICENTER": 203.3469, "MEAN_ANOMALY": 155.5376, "EPHEMERIS_TYPE": 0, "CLASSIFICATION_TYPE": "U", "NORAD_CAT_ID": 35088, "ELEMENT_SET_NO": 999, "REV_AT_EPOCH": 58800, "BSTAR": 0.010610685, "MEAN_MOTION_DOT": 0.0002728, "MEAN_MOTION_DDOT": 0}, "tle": {"line1": "1 35088U 99025DJQ 25346.77212258  .00027280  00000+0  10611-1 0  9991", "line2": "2 35088  94.6219 162.3279 0267600 203.3469 155.5376 14.11948570588008"}}, "geometry": {"type": "Point", "coordinates": [175.27651344174072, -68.2673110272899]}}, {"type": "Feature", "properties": {"norad_id": 35089, "name": "FENGYUN 1C DEB", "group": "fengyun-1c-debris", "lat": -77.4198857179946, "lon": 136.47955207678052, "alt_km": 853.9314769818839, "timestamp": "2025-12-15T04:01:20.738781+00:00", "meta": {"OBJECT_NAME": "FENGYUN 1C DEB", "OBJECT_ID": "1999-025DJR", "EPOCH": "2025-12-14T06:29:49.355232", "MEAN_MOTION": 14.19421959, "ECCENTRICITY": 0.00290785, "INCLINATION": 98.5596, "RA_OF_ASC_NODE": 358.0587, "ARG_OF_PERICENTER": 60.562, "MEAN_ANOMALY": 299.8453, "EPHEMERIS_TYPE": 0, "CLASSIFICATION_TYPE": "U", "NORAD_CAT_ID": 35089, "ELEMENT_SET_NO": 999, "REV_AT_EPOCH": 60897, "BSTAR": 0.00068363856, "MEAN_MOTION_DOT": 1.402e-05, "MEAN_MOTION_DDOT": 0}, "tle": {"line1": "1 35089U 99025DJR 25348.27071013  .00001402  00000+0  68364-3 0  9999", "line2": "2 35089  98.5596 358.0587 0029078  60.5620 299.8453 14.19421959608975"}}, "geometry": {"type": "Point", "coordinates": [136.47955207678052, -77.4198857179946]}}, {"type": "Feature", "properties": {"norad_id": 35090, "name": "FENGYUN 1C DEB", "group": "fengyun-1c-debris", "lat": -24.763557029251466, "lon": 177.65908447994607, "alt_km": 878.4381931937041, "timestamp": "2025-12-15T04:01:20.738791+00:00", "meta": {"OBJECT_NAME": "FENGYUN 1C DEB", "OBJECT_ID": "1999-025DJS", "EPOCH": "2025-11-28T11:16:09.482016", "MEAN_MOTION": 14.17474979, "ECCENTRICITY": 0.00568935, "INCLINATION": 99.1993, "RA_OF_ASC_NODE": 344.6679, "ARG_OF_PERICENTER": 56.1043, "MEAN_ANOMALY": 304.5524, "EPHEMERIS_TYPE": 0, "CLASSIFICATION_TYPE": "U", "NORAD_CAT_ID": 35090, "ELEMENT_SET_NO": 999, "REV_AT_EPOCH": 66048, "BSTAR": 0.0014922384, "MEAN_MOTION_DOT": 3.028e-05, "MEAN_MOTION_DDOT": 0}, "tle": {"line1": "1 35090U 99025DJS 25332.46955419  .00003028  00000+0  14922-2 0  9992", "line2": "2 35090  99.1993 344.6679 0056893  56.1043 304.5524 14.17474979660488"}}, "geometry": {"type": "Point", "coordinates": [177.65908447994607, -24.763557029251466]}}, {"type": "Feature", "properties": {"norad_id": 35091, "name": "FENGYUN 1C DEB", "group": "fengyun-1c-debris", "lat": -22.8238583718397, "lon": -90.09251457566654, "alt_km": 687.9306925593546, "timestamp": "2025-12-15T04:01:20.738801+00:00", "meta": {"OBJECT_NAME": "FENGYUN 1C DEB", "OBJECT_ID": "1999-025DJT", "EPOCH": "2025-12-14T05:43:58.882944", "MEAN_MOTION": 14.61613588, "ECCENTRICITY": 0.00487949, "INCLINATION": 98.5965, "RA_OF_ASC_NODE": 92.5926, "ARG_OF_PERICENTER": 287.1914, "MEAN_ANOMALY": 72.3947, "EPHEMERIS_TYPE": 0, "CLASSIFICATION_TYPE": "U", "NORAD_CAT_ID": 35091, "ELEMENT_SET_NO": 999, "REV_AT_EPOCH": 89949, "BSTAR": 0.0029711627, "MEAN_MOTION_DOT": 0.00014999, "MEAN_MOTION_DDOT": 0}, "tle": {"line1": "1 35091U 99025DJT 25348.23887596  .00014999  00000+0  29712-2 0  9997", "line2": "2 35091  98.5965  92.5926 0048794 287.1914  72.3947 14.61613588899493"}}, "geometry": {"type": "Point", "coordinates": [-90.09251457566654, -22.8238583718397]}}, {"type": "Feature", "properties": {"norad_id": 35102, "name": "FENGYUN 1C DEB", "group": "fengyun-1c-debris", "lat": 69.31125372881762, "lon": -23.894261134938436, "alt_km": 746.3284239822524, "timestamp": "2025-12-15T04:01:20.738811+00:00", "meta": {"OBJECT_NAME": "FENGYUN 1C DEB", "OBJECT_ID": "1999-025DKE", "EPOCH": "2025-12-13T06:19:02.409312", "MEAN_MOTION": 14.28874039, "ECCENTRICITY": 0.00607637, "INCLINATION": 98.4802, "RA_OF_ASC_NODE": 357.5239, "ARG_OF_PERICENTER": 90.2418, "MEAN_ANOMALY": 270.5727, "EPHEMERIS_TYPE": 0, "CLASSIFICATION_TYPE": "U", "NORAD_CAT_ID": 35102, "ELEMENT_SET_NO": 999, "REV_AT_EPOCH": 64920, "BSTAR": 0.00073405609, "MEAN_MOTION_DOT": 1.848e-05, "MEAN_MOTION_DDOT": 0}, "tle": {"line1": "1 35102U 99025DKE 25347.26322233  .00001848  00000+0  73406-3 0  9993", "line2": "2 35102  98.4802 357.5239 0060763  90.2418 270.5727 14.28874039649201"}}, "geometry": {"type": "Point", "coordinates": [-23.894261134938436, 69.31125372881762]}}, {"type": "Feature", "properties": {"norad_id": 35104, "name": "FENGYUN 1C DEB", "group": "fengyun-1c-debris", "lat": 18.976273241160744, "lon": 178.78423179502548, "alt_km": 804.2158103001748, "timestamp": "2025-12-15T04:01:20.738822+00:00", "meta": {"OBJECT_NAME": "FENGYUN 1C DEB", "OBJECT_ID": "1999-025DKG", "EPOCH": "2025-12-14T07:03:31.505760", "MEAN_MOTION": 14.20331607, "ECCENTRICITY": 0.00312791, "INCLINATION": 98.5966, "RA_OF_ASC_NODE": 354.9536, "ARG_OF_PERICENTER": 136.6783, "MEAN_ANOMALY": 240.0708, "EPHEMERIS_TYPE": 0, "CLASSIFICATION_TYPE": "U", "NORAD_CAT_ID": 35104, "ELEMENT_SET_NO": 999, "REV_AT_EPOCH": 89789, "BSTAR": 0.00050484165, "MEAN_MOTION_DOT": 1.043e-05, "MEAN_MOTION_DDOT": 0}, "tle": {"line1": "1 35104U 99025DKG 25348.29411465  .00001043  00000+0  50484-3 0  9993", "line2": "2 35104  98.5966 354.9536 0031279 136.6783 240.0708 14.20331607897898"}}, "geometry": {"type": "Point", "coordinates": [178.78423179502548, 18.976273241160744]}}, {"type": "Feature", "properties": {"norad_id": 35105, "name": "FENGYUN 1C DEB", "group": "fengyun-1c-debris", "lat": 56.24174877521445, "lon": -43.28157627177148, "alt_km": 656.2830800724332, "timestamp": "2025-12-15T04:01:20.738832+00:00", "meta": {"OBJECT_NAME": "FENGYUN 1C DEB", "OBJECT_ID": "1999-025DKH", "EPOCH": "2025-12-14T04:30:14.684544", "MEAN_MOTION": 14.45384456, "ECCENTRICITY": 0.01127493, "INCLINATION": 98.9443, "RA_OF_ASC_NODE": 329.315, "ARG_OF_PERICENTER": 50.1659, "MEAN_ANOMALY": 310.9387, "EPHEMERIS_TYPE": 0, "CLASSIFICATION_TYPE": "U", "NORAD_CAT_ID": 35105, "ELEMENT_SET_NO": 999, "REV_AT_EPOCH": 94514, "BSTAR": 0.00047927589, "MEAN_MOTION_DOT": 1.77e-05, "MEAN_MOTION_DDOT": 0}, "tle": {"line1": "1 35105U 99025DKH 25348.18766996  .00001770  00000+0  47928-3 0  9990", "line2": "2 35105  98.9443 329.3150 0112749  50.1659 310.9387 14.45384456945144"}}, "geometry": {"type": "Point", "coordinates": [-43.28157627177148, 56.24174877521445]}}]}